CCSDS_OMM_VERS = 2.0
CREATION_DATE  = 
ORIGINATOR     = 

OBJECT_NAME    = STARLINK-36532
OBJECT_ID      = 2026-020M
CENTER_NAME    = EARTH
REF_FRAME      = TEME
TIME_SYSTEM    = UTC
MEAN_ELEMENT_THEORY = SGP/SGP4

EPOCH          = 2026-02-10T06:00:02.000160
MEAN_MOTION    = 15.81999070
ECCENTRICITY   = .00023422
INCLINATION    = 42.9987
RA_OF_ASC_NODE = 308.9300
ARG_OF_PERICENTER = 277.4176
MEAN_ANOMALY   = 149.1867

EPHEMERIS_TYPE = 0
CLASSIFICATION_TYPE = U
NORAD_CAT_ID   = 67628
ELEMENT_SET_NO = 999
REV_AT_EPOCH   = 298
BSTAR          = .42333841E-3
MEAN_MOTION_DOT = .89468E-3
MEAN_MOTION_DDOT = 0

CCSDS_OMM_VERS = 2.0
CREATION_DATE  = 
ORIGINATOR     = 

OBJECT_NAME    = STARLINK-36367
OBJECT_ID      = 2026-020N
CENTER_NAME    = EARTH
REF_FRAME      = TEME
TIME_SYSTEM    = UTC
MEAN_ELEMENT_THEORY = SGP/SGP4

EPOCH          = 2026-02-10T06:00:02.000160
MEAN_MOTION    = 15.82002123
ECCENTRICITY   = .00018556
INCLINATION    = 42.9989
RA_OF_ASC_NODE = 308.9370
ARG_OF_PERICENTER = 267.1428
MEAN_ANOMALY   = 156.6428

EPHEMERIS_TYPE = 0
CLASSIFICATION_TYPE = U
NORAD_CAT_ID   = 67629
ELEMENT_SET_NO = 999
REV_AT_EPOCH   = 298
BSTAR          = .29517284E-3
MEAN_MOTION_DOT = .62027E-3
MEAN_MOTION_DDOT = 0

CCSDS_OMM_VERS = 2.0
CREATION_DATE  = 
ORIGINATOR     = 

OBJECT_NAME    = STARLINK-36416
OBJECT_ID      = 2026-020P
CENTER_NAME    = EARTH
REF_FRAME      = TEME
TIME_SYSTEM    = UTC
MEAN_ELEMENT_THEORY = SGP/SGP4

EPOCH          = 2026-02-10T06:00:02.000160
MEAN_MOTION    = 15.81430328
ECCENTRICITY   = .00016089
INCLINATION    = 42.9990
RA_OF_ASC_NODE = 308.9229
ARG_OF_PERICENTER = 282.4728
MEAN_ANOMALY   = 146.8007

EPHEMERIS_TYPE = 0
CLASSIFICATION_TYPE = U
NORAD_CAT_ID   = 67630
ELEMENT_SET_NO = 999
REV_AT_EPOCH   = 298
BSTAR          = -.10567486E-1
MEAN_MOTION_DOT = -.1891454E-1
MEAN_MOTION_DDOT = 0

CCSDS_OMM_VERS = 2.0
CREATION_DATE  = 
ORIGINATOR     = 

OBJECT_NAME    = STARLINK-36527
OBJECT_ID      = 2026-020Q
CENTER_NAME    = EARTH
REF_FRAME      = TEME
TIME_SYSTEM    = UTC
MEAN_ELEMENT_THEORY = SGP/SGP4

EPOCH          = 2026-02-10T06:00:02.000160
MEAN_MOTION    = 15.81991617
ECCENTRICITY   = .00019493
INCLINATION    = 42.9990
RA_OF_ASC_NODE = 308.9146
ARG_OF_PERICENTER = 264.5217
MEAN_ANOMALY   = 168.3035

EPHEMERIS_TYPE = 0
CLASSIFICATION_TYPE = U
NORAD_CAT_ID   = 67631
ELEMENT_SET_NO = 999
REV_AT_EPOCH   = 298
BSTAR          = .49483742E-3
MEAN_MOTION_DOT = .104814E-2
MEAN_MOTION_DDOT = 0

CCSDS_OMM_VERS = 2.0
CREATION_DATE  = 
ORIGINATOR     = 

OBJECT_NAME    = STARLINK-36633
OBJECT_ID      = 2026-020R
CENTER_NAME    = EARTH
REF_FRAME      = TEME
TIME_SYSTEM    = UTC
MEAN_ELEMENT_THEORY = SGP/SGP4

EPOCH          = 2026-02-10T06:00:02.000160
MEAN_MOTION    = 15.81955201
ECCENTRICITY   = .00014871
INCLINATION    = 42.9990
RA_OF_ASC_NODE = 308.9038
ARG_OF_PERICENTER = 272.6328
MEAN_ANOMALY   = 164.4033

EPHEMERIS_TYPE = 0
CLASSIFICATION_TYPE = U
NORAD_CAT_ID   = 67632
ELEMENT_SET_NO = 999
REV_AT_EPOCH   = 298
BSTAR          = .7306024E-3
MEAN_MOTION_DOT = .155656E-2
MEAN_MOTION_DDOT = 0

CCSDS_OMM_VERS = 2.0
CREATION_DATE  = 
ORIGINATOR     = 

OBJECT_NAME    = STARLINK-36637
OBJECT_ID      = 2026-020S
CENTER_NAME    = EARTH
REF_FRAME      = TEME
TIME_SYSTEM    = UTC
MEAN_ELEMENT_THEORY = SGP/SGP4

EPOCH          = 2026-02-10T06:00:02.000160
MEAN_MOTION    = 15.81729734
ECCENTRICITY   = .00017502
INCLINATION    = 42.9991
RA_OF_ASC_NODE = 308.8954
ARG_OF_PERICENTER = 271.1338
MEAN_ANOMALY   = 169.2472

EPHEMERIS_TYPE = 0
CLASSIFICATION_TYPE = U
NORAD_CAT_ID   = 67633
ELEMENT_SET_NO = 999
REV_AT_EPOCH   = 298
BSTAR          = -.10463374E-1
MEAN_MOTION_DOT = -.1898562E-1
MEAN_MOTION_DDOT = 0

CCSDS_OMM_VERS = 2.0
CREATION_DATE  = 
ORIGINATOR     = 

OBJECT_NAME    = STARLINK-36617
OBJECT_ID      = 2026-020T
CENTER_NAME    = EARTH
REF_FRAME      = TEME
TIME_SYSTEM    = UTC
MEAN_ELEMENT_THEORY = SGP/SGP4

EPOCH          = 2026-02-10T06:00:02.000160
MEAN_MOTION    = 15.81993198
ECCENTRICITY   = .00019541
INCLINATION    = 42.9991
RA_OF_ASC_NODE = 308.8854
ARG_OF_PERICENTER = 283.4571
MEAN_ANOMALY   = 160.8982

EPHEMERIS_TYPE = 0
CLASSIFICATION_TYPE = U
NORAD_CAT_ID   = 67634
ELEMENT_SET_NO = 999
REV_AT_EPOCH   = 298
BSTAR          = .40946565E-3
MEAN_MOTION_DOT = .86461E-3
MEAN_MOTION_DDOT = 0

CCSDS_OMM_VERS = 2.0
CREATION_DATE  = 
ORIGINATOR     = 

OBJECT_NAME    = STARLINK-36627
OBJECT_ID      = 2026-020U
CENTER_NAME    = EARTH
REF_FRAME      = TEME
TIME_SYSTEM    = UTC
MEAN_ELEMENT_THEORY = SGP/SGP4

EPOCH          = 2026-02-10T06:00:02.000160
MEAN_MOTION    = 15.81977820
ECCENTRICITY   = .00015669
INCLINATION    = 42.9990
RA_OF_ASC_NODE = 308.8505
ARG_OF_PERICENTER = 265.2977
MEAN_ANOMALY   = 192.9519

EPHEMERIS_TYPE = 0
CLASSIFICATION_TYPE = U
NORAD_CAT_ID   = 67635
ELEMENT_SET_NO = 999
REV_AT_EPOCH   = 298
BSTAR          = .50822359E-3
MEAN_MOTION_DOT = .107626E-2
MEAN_MOTION_DDOT = 0

CCSDS_OMM_VERS = 2.0
CREATION_DATE  = 
ORIGINATOR     = 

OBJECT_NAME    = STARLINK-36624
OBJECT_ID      = 2026-020V
CENTER_NAME    = EARTH
REF_FRAME      = TEME
TIME_SYSTEM    = UTC
MEAN_ELEMENT_THEORY = SGP/SGP4

EPOCH          = 2026-02-10T06:00:02.000160
MEAN_MOTION    = 15.81993915
ECCENTRICITY   = .0001741
INCLINATION    = 42.9992
RA_OF_ASC_NODE = 308.8590
ARG_OF_PERICENTER = 282.0689
MEAN_ANOMALY   = 172.9489

EPHEMERIS_TYPE = 0
CLASSIFICATION_TYPE = U
NORAD_CAT_ID   = 67636
ELEMENT_SET_NO = 999
REV_AT_EPOCH   = 298
BSTAR          = .25304017E-3
MEAN_MOTION_DOT = .5302E-3
MEAN_MOTION_DDOT = 0

CCSDS_OMM_VERS = 2.0
CREATION_DATE  = 
ORIGINATOR     = 

OBJECT_NAME    = STARLINK-36610
OBJECT_ID      = 2026-020W
CENTER_NAME    = EARTH
REF_FRAME      = TEME
TIME_SYSTEM    = UTC
MEAN_ELEMENT_THEORY = SGP/SGP4

EPOCH          = 2026-02-10T06:00:02.000160
MEAN_MOTION    = 15.82142420
ECCENTRICITY   = .00019897
INCLINATION    = 42.9992
RA_OF_ASC_NODE = 308.8374
ARG_OF_PERICENTER = 287.4064
MEAN_ANOMALY   = 175.8909

EPHEMERIS_TYPE = 0
CLASSIFICATION_TYPE = U
NORAD_CAT_ID   = 67637
ELEMENT_SET_NO = 999
REV_AT_EPOCH   = 298
BSTAR          = -.10343032E-1
MEAN_MOTION_DOT = -.1912024E-1
MEAN_MOTION_DDOT = 0

CCSDS_OMM_VERS = 2.0
CREATION_DATE  = 
ORIGINATOR     = 

OBJECT_NAME    = STARLINK-36599
OBJECT_ID      = 2026-020X
CENTER_NAME    = EARTH
REF_FRAME      = TEME
TIME_SYSTEM    = UTC
MEAN_ELEMENT_THEORY = SGP/SGP4

EPOCH          = 2026-02-10T06:00:02.000160
MEAN_MOTION    = 15.81993742
ECCENTRICITY   = .00019131
INCLINATION    = 42.9991
RA_OF_ASC_NODE = 308.8259
ARG_OF_PERICENTER = 275.9368
MEAN_ANOMALY   = 192.1050

EPHEMERIS_TYPE = 0
CLASSIFICATION_TYPE = U
NORAD_CAT_ID   = 67638
ELEMENT_SET_NO = 999
REV_AT_EPOCH   = 298
BSTAR          = .4114746E-3
MEAN_MOTION_DOT = .86894E-3
MEAN_MOTION_DDOT = 0

CCSDS_OMM_VERS = 2.0
CREATION_DATE  = 
ORIGINATOR     = 

OBJECT_NAME    = STARLINK-36595
OBJECT_ID      = 2026-020Y
CENTER_NAME    = EARTH
REF_FRAME      = TEME
TIME_SYSTEM    = UTC
MEAN_ELEMENT_THEORY = SGP/SGP4

EPOCH          = 2026-02-10T06:00:02.000160
MEAN_MOTION    = 15.82059157
ECCENTRICITY   = .00018321
INCLINATION    = 42.9992
RA_OF_ASC_NODE = 308.8146
ARG_OF_PERICENTER = 265.9710
MEAN_ANOMALY   = 206.5283

EPHEMERIS_TYPE = 0
CLASSIFICATION_TYPE = U
NORAD_CAT_ID   = 67639
ELEMENT_SET_NO = 999
REV_AT_EPOCH   = 298
BSTAR          = -.53904286E-4
MEAN_MOTION_DOT = -.11892E-3
MEAN_MOTION_DDOT = 0

CCSDS_OMM_VERS = 2.0
CREATION_DATE  = 
ORIGINATOR     = 

OBJECT_NAME    = STARLINK-36570
OBJECT_ID      = 2026-020Z
CENTER_NAME    = EARTH
REF_FRAME      = TEME
TIME_SYSTEM    = UTC
MEAN_ELEMENT_THEORY = SGP/SGP4

EPOCH          = 2026-02-10T06:00:02.000160
MEAN_MOTION    = 15.82008590
ECCENTRICITY   = .00017729
INCLINATION    = 42.9992
RA_OF_ASC_NODE = 308.8060
ARG_OF_PERICENTER = 272.7477
MEAN_ANOMALY   = 203.1079

EPHEMERIS_TYPE = 0
CLASSIFICATION_TYPE = U
NORAD_CAT_ID   = 67640
ELEMENT_SET_NO = 999
REV_AT_EPOCH   = 298
BSTAR          = .31729778E-3
MEAN_MOTION_DOT = .66773E-3
MEAN_MOTION_DDOT = 0

CCSDS_OMM_VERS = 2.0
CREATION_DATE  = 
ORIGINATOR     = 

OBJECT_NAME    = STARLINK-36514
OBJECT_ID      = 2026-020AA
CENTER_NAME    = EARTH
REF_FRAME      = TEME
TIME_SYSTEM    = UTC
MEAN_ELEMENT_THEORY = SGP/SGP4

EPOCH          = 2026-02-10T06:00:02.000160
MEAN_MOTION    = 15.81980743
ECCENTRICITY   = .00021714
INCLINATION    = 42.9991
RA_OF_ASC_NODE = 308.7817
ARG_OF_PERICENTER = 275.0467
MEAN_ANOMALY   = 210.5445

EPHEMERIS_TYPE = 0
CLASSIFICATION_TYPE = U
NORAD_CAT_ID   = 67641
ELEMENT_SET_NO = 999
REV_AT_EPOCH   = 298
BSTAR          = .55939253E-3
MEAN_MOTION_DOT = .118691E-2
MEAN_MOTION_DDOT = 0

CCSDS_OMM_VERS = 2.0
CREATION_DATE  = 
ORIGINATOR     = 

OBJECT_NAME    = STARLINK-36556
OBJECT_ID      = 2026-020AB
CENTER_NAME    = EARTH
REF_FRAME      = TEME
TIME_SYSTEM    = UTC
MEAN_ELEMENT_THEORY = SGP/SGP4

EPOCH          = 2026-02-10T06:00:02.000160
MEAN_MOTION    = 15.81963518
ECCENTRICITY   = .00017916
INCLINATION    = 42.9989
RA_OF_ASC_NODE = 308.7717
ARG_OF_PERICENTER = 267.4687
MEAN_ANOMALY   = 221.7616

EPHEMERIS_TYPE = 0
CLASSIFICATION_TYPE = U
NORAD_CAT_ID   = 67642
ELEMENT_SET_NO = 999
REV_AT_EPOCH   = 298
BSTAR          = .49934531E-3
MEAN_MOTION_DOT = .105643E-2
MEAN_MOTION_DDOT = 0

